KUIPER-00165            
1 65778U 25217S   25316.69992059  .00077518  00000+0  20654-2 0  9992
2 65778  51.8704 209.6598 0003654 215.9806 144.0935 15.37478226  7422
KUIPER-00166            
1 65779U 25217T   25316.43202172  .00163976  00000+0  42911-2 0  9999
2 65779  51.8719 210.8695 0002764 195.1655 164.9250 15.37600488  7386
KUIPER-00167            
1 65780U 25217U   25317.00002315 -.01069116  00000+0 -43368-1 0  9992
2 65780  51.8729 208.8337 0008252 239.6637  17.4330 15.26969257  5784
KUIPER-00168            
1 65781U 25217V   25316.93030064  .00065435  00000+0  17019-2 0  9998
2 65781  51.8706 208.2160 0003155 145.0595 215.0600 15.38300533  7460
KUIPER-00169            
1 65782U 25217W   25316.69359175  .00063934  00000+0  16942-2 0  9995
2 65782  51.8706 209.6234 0001782 173.1750 186.9261 15.37737987  7428
KUIPER-00170            
1 65783U 25217X   25316.91863387  .00085018  00000+0  23474-2 0  9991
2 65783  51.8649 208.8574 0006095 255.7543 104.2766 15.36317428  7451
KUIPER-00171            
1 65784U 25217Y   25317.00002315  .00490488  00000+0  57835-2 0  9998
2 65784  51.8585 206.4591 0006811 264.4333  88.5369 15.59155790  5362
KUIPER-00172            
1 65785U 25217Z   25316.09567594  .00042737  00000+0  11275-2 0  9990
2 65785  51.8717 212.3690 0003149 200.6072 159.4789 15.38051297  7336
KUIPER-00173            
1 65786U 25217AA  25315.97272876  .00075363  00000+0  19950-2 0  9992
2 65786  51.8710 213.0412 0002389 186.1282 173.9676 15.37693860  7317
KUIPER-00174            
1 65787U 25217AB  25316.73944062  .00107303  00000+0  27867-2 0  9997
2 65787  51.8715 209.1840 0003552 148.7121 211.4078 15.38104110  7436
KUIPER-00176            
1 65788U 25217AC  25317.00002315 -.00751181  00000+0 -25415-1 0  9992
2 65788  51.8741 208.1275 0000487 280.0491 334.5493 15.32389500  5899
KUIPER-00101            
1 65947U 25228A   25316.91668981 -.00578037  00000+0 -21948-1 0  9991
2 65947  51.8822 164.4628 0005711 236.5111 109.2819 15.28431611  5527
KUIPER-00113            
1 65948U 25228B   25316.57177266  .00105472  00000+0  29764-2 0  9997
2 65948  51.8752 165.8574 0005988 241.5321 118.5062 15.35525529  5781
KUIPER-00117            
1 65949U 25228C   25316.91668981 -.00802978  00000+0 -26752-1 0  9995
2 65949  51.8802 164.2240 0007244 244.5186 205.0666 15.32977178  5263
KUIPER-00121            
1 65950U 25228D   25316.84472507  .00071769  00000+0  20844-2 0  9997
2 65950  51.8828 164.6881 0005307 256.3970 103.6425 15.34820392  5823
KUIPER-00122            
1 65951U 25228E   25316.91668981 -.00627150  00000+0 -28803-1 0  9994
2 65951  51.8825 164.9344 0006466 276.2311 208.8640 15.22316362  4454
KUIPER-00123            
1 65952U 25228F   25316.91668981 -.01468787  00000+0 -69147-1 0  9991
2 65952  51.8846 164.9516 0006242 258.4861 175.5188 15.22028829  2759
KUIPER-00124            
1 65953U 25228G   25316.84814530  .00051533  00000+0  15224-2 0  9999
2 65953  51.8792 164.7057 0005216 274.1949  85.8441 15.34433073  5820
KUIPER-00125            
1 65954U 25228H   25316.31901200  .00082072  00000+0  23599-2 0  9999
2 65954  51.8779 167.1581 0004739 245.4129 114.6363 15.35073080  5749
KUIPER-00126            
1 65955U 25228J   25316.91668981 -.00713378  00000+0 -28118-1 0  9995
2 65955  51.8808 164.5346 0005846 274.1660  15.1519 15.27715237  5254
KUIPER-00127            
1 65956U 25228K   25316.91668981 -.00813001  00000+0 -26140-1 0  9993
2 65956  51.8795 164.2253 0004977 249.4522 206.5138 15.34149906  4692
KUIPER-00128            
1 65957U 25228L   25316.96858677  .00058015  00000+0  16806-2 0  9995
2 65957  51.8745 164.0190 0006078 244.1367 115.8992 15.34993322  5846
KUIPER-00129            
1 65958U 25228M   25316.96753430  .00060304  00000+0  17315-2 0  9997
2 65958  51.8829 164.0119 0006823 242.1173 117.9122 15.35249805  5841
KUIPER-00130            
1 65959U 25228N   25316.58148904  .00071849  00000+0  20815-2 0  9995
2 65959  51.8747 165.9163 0003986 250.5643 109.4913 15.34903821  5783
KUIPER-00134            
1 65960U 25228P   25316.90879830  .00049799  00000+0  14511-2 0  9997
2 65960  51.8814 164.3587 0005733 257.2442 102.7904 15.34877913  5830
KUIPER-00135            
1 65961U 25228Q   25316.58288773  .00054769  00000+0  15929-2 0  9999
2 65961  51.8773 165.9354 0003856 239.8289 120.2315 15.34903323  5783
KUIPER-00136            
1 65962U 25228R   25316.57541091  .00060757  00000+0  17491-2 0  9994
2 65962  51.8753 165.8843 0004091 231.5110 128.5509 15.35176694  5788
KUIPER-00137            
1 65963U 25228S   25316.84274677  .00079705  00000+0  23099-2 0  9992
2 65963  51.8795 164.6754 0004794 249.0780 110.9693 15.34840177  5827
KUIPER-00138            
1 65964U 25228T   25316.84640164  .00026291  00000+0  77927-3 0  9993
2 65964  51.8788 164.6925 0006170 266.3607  93.6673 15.34650938  5829
KUIPER-00140            
1 65965U 25228U   25316.84749407  .00059561  00000+0  17546-2 0  9990
2 65965  51.8850 164.7045 0005967 263.3969  96.6337 15.34454089  5824
KUIPER-00141            
1 65966U 25228V   25316.96893533  .00053054  00000+0  15323-2 0  9996
2 65966  51.8813 164.0131 0006416 248.1803 111.8500 15.35125022  5848
KUIPER-00146            
1 65967U 25228W   25316.31901203  .00085723  00000+0  24793-2 0  9999
2 65967  51.8783 167.1661 0005414 243.5986 116.4444 15.34865054  5747
KUIPER-00149            
1 65968U 25228X   25316.31510304  .00096473  00000+0  27530-2 0  9994
2 65968  51.8781 167.1336 0004605 238.5809 121.4727 15.35230071  5740
KUIPER-00154            
1 65969U 25228Y   25316.96499293  .00051257  00000+0  14812-2 0  9999
2 65969  51.8748 163.9908 0006206 237.4960 122.5426 15.35124236  5842
KUIPER-00157            
1 65970U 25228Z   25316.90888139  .00076516  00000+0  22193-2 0  9992
2 65970  51.8752 164.3659 0004971 264.9072  95.1346 15.34832610  5839
